[
  {
    "CCSDS_OMM_VERS": "3.0",
    "COMMENT": "GENERATED VIA SPACE-TRACK.ORG API",
    "CREATION_DATE": "2026-02-19T17:59:09",
    "ORIGINATOR": "18 SPCS",
    "OBJECT_NAME": "COSMOS 1253",
    "OBJECT_ID": "1981-022D",
    "CENTER_NAME": "EARTH",
    "REF_FRAME": "TEME",
    "TIME_SYSTEM": "UTC",
    "MEAN_ELEMENT_THEORY": "SGP4",
    "EPOCH": "2026-02-19T15:26:28.393152",
    "MEAN_MOTION": "12.45839037",
    "ECCENTRICITY": "0.00184455",
    "INCLINATION": "74.0304",
    "RA_OF_ASC_NODE": "297.0675",
    "ARG_OF_PERICENTER": "227.7762",
    "MEAN_ANOMALY": "146.7859",
    "EPHEMERIS_TYPE": "0",
    "CLASSIFICATION_TYPE": "U",
    "NORAD_CAT_ID": "12323",
    "ELEMENT_SET_NO": "999",
    "REV_AT_EPOCH": "4468",
    "BSTAR": "0.00015224812000",
    "MEAN_MOTION_DOT": "0.00000006",
    "MEAN_MOTION_DDOT": "0.0000000000000",
    "SEMIMAJOR_AXIS": "7860.085",
    "PERIOD": "115.585",
    "APOAPSIS": "1496.448",
    "PERIAPSIS": "1467.451",
    "OBJECT_TYPE": "PAYLOAD",
    "RCS_SIZE": "MEDIUM",
    "COUNTRY_CODE": "CIS",
    "LAUNCH_DATE": "1981-03-06",
    "SITE": "PKMTR",
    "DECAY_DATE": null,
    "FILE": "5039972",
    "GP_ID": "313157911",
    "TLE_LINE0": "0 COSMOS 1253",
    "TLE_LINE1": "1 12323U 81022D   26050.64338418  .00000006  00000-0  15225-3 0  9998",
    "TLE_LINE2": "2 12323  74.0304 297.0675 0018446 227.7762 146.7859 12.45839037 44687"
  },
  {
    "CCSDS_OMM_VERS": "3.0",
    "COMMENT": "GENERATED VIA SPACE-TRACK.ORG API",
    "CREATION_DATE": "2026-02-19T17:59:09",
    "ORIGINATOR": "18 SPCS",
    "OBJECT_NAME": "STARLINK-30352",
    "OBJECT_ID": "2023-131E",
    "CENTER_NAME": "EARTH",
    "REF_FRAME": "TEME",
    "TIME_SYSTEM": "UTC",
    "MEAN_ELEMENT_THEORY": "SGP4",
    "EPOCH": "2026-02-19T15:26:21.953760",
    "MEAN_MOTION": "15.02533029",
    "ECCENTRICITY": "0.00020462",
    "INCLINATION": "43.0046",
    "RA_OF_ASC_NODE": "269.4945",
    "ARG_OF_PERICENTER": "264.7668",
    "MEAN_ANOMALY": "95.2941",
    "EPHEMERIS_TYPE": "0",
    "CLASSIFICATION_TYPE": "U",
    "NORAD_CAT_ID": "57736",
    "ELEMENT_SET_NO": "999",
    "REV_AT_EPOCH": "13721",
    "BSTAR": "-0.00000290931500",
    "MEAN_MOTION_DOT": "-0.00000243",
    "MEAN_MOTION_DDOT": "0.0000000000000",
    "SEMIMAJOR_AXIS": "6937.226",
    "PERIOD": "95.838",
    "APOAPSIS": "560.510",
    "PERIAPSIS": "557.671",
    "OBJECT_TYPE": "PAYLOAD",
    "RCS_SIZE": "LARGE",
    "COUNTRY_CODE": "US",
    "LAUNCH_DATE": "2023-09-01",
    "SITE": "AFETR",
    "DECAY_DATE": null,
    "FILE": "5039972",
    "GP_ID": "313178504",
    "TLE_LINE0": "0 STARLINK-30352",
    "TLE_LINE1": "1 57736U 23131E   26050.64330965 -.00000243  00000-0 -29093-5 0  9996",
    "TLE_LINE2": "2 57736  43.0046 269.4945 0002046 264.7668  95.2941 15.02533029137211"
  },
  {
    "CCSDS_OMM_VERS": "3.0",
    "COMMENT": "GENERATED VIA SPACE-TRACK.ORG API",
    "CREATION_DATE": "2026-02-19T17:59:09",
    "ORIGINATOR": "18 SPCS",
    "OBJECT_NAME": "COSMOS 1550",
    "OBJECT_ID": "1984-043A",
    "CENTER_NAME": "EARTH",
    "REF_FRAME": "TEME",
    "TIME_SYSTEM": "UTC",
    "MEAN_ELEMENT_THEORY": "SGP4",
    "EPOCH": "2026-02-19T15:26:07.553472",
    "MEAN_MOTION": "13.73015077",
    "ECCENTRICITY": "0.00255504",
    "INCLINATION": "82.9742",
    "RA_OF_ASC_NODE": "306.5611",
    "ARG_OF_PERICENTER": "349.8144",
    "MEAN_ANOMALY": "23.3310",
    "EPHEMERIS_TYPE": "0",
    "CLASSIFICATION_TYPE": "U",
    "NORAD_CAT_ID": "14965",
    "ELEMENT_SET_NO": "999",
    "REV_AT_EPOCH": "9367",
    "BSTAR": "0.00006420353900",
    "MEAN_MOTION_DOT": "0.00000074",
    "MEAN_MOTION_DDOT": "0.0000000000000",
    "SEMIMAJOR_AXIS": "7366.903",
    "PERIOD": "104.879",
    "APOAPSIS": "1007.591",
    "PERIAPSIS": "969.946",
    "OBJECT_TYPE": "PAYLOAD",
    "RCS_SIZE": "LARGE",
    "COUNTRY_CODE": "CIS",
    "LAUNCH_DATE": "1984-05-11",
    "SITE": "PKMTR",
    "DECAY_DATE": null,
    "FILE": "5039972",
    "GP_ID": "313158820",
    "TLE_LINE0": "0 COSMOS 1550",
    "TLE_LINE1": "1 14965U 84043A   26050.64314298  .00000074  00000-0  64204-4 0  9995",
    "TLE_LINE2": "2 14965  82.9742 306.5611 0025550 349.8144  23.3310 13.73015077 93672"
  },
  {
    "CCSDS_OMM_VERS": "3.0",
    "COMMENT": "GENERATED VIA SPACE-TRACK.ORG API",
    "CREATION_DATE": "2026-02-19T17:59:09",
    "ORIGINATOR": "18 SPCS",
    "OBJECT_NAME": "COSMOS 1432",
    "OBJECT_ID": "1983-002D",
    "CENTER_NAME": "EARTH",
    "REF_FRAME": "TEME",
    "TIME_SYSTEM": "UTC",
    "MEAN_ELEMENT_THEORY": "SGP4",
    "EPOCH": "2026-02-19T15:25:56.334432",
    "MEAN_MOTION": "12.49886474",
    "ECCENTRICITY": "0.00036974",
    "INCLINATION": "74.0243",
    "RA_OF_ASC_NODE": "131.0749",
    "ARG_OF_PERICENTER": "262.6474",
    "MEAN_ANOMALY": "168.8474",
    "EPHEMERIS_TYPE": "0",
    "CLASSIFICATION_TYPE": "U",
    "NORAD_CAT_ID": "13764",
    "ELEMENT_SET_NO": "999",
    "REV_AT_EPOCH": "96616",
    "BSTAR": "0.00018994272000",
    "MEAN_MOTION_DOT": "0.00000013",
    "MEAN_MOTION_DDOT": "0.0000000000000",
    "SEMIMAJOR_AXIS": "7843.107",
    "PERIOD": "115.210",
    "APOAPSIS": "1467.872",
    "PERIAPSIS": "1462.072",
    "OBJECT_TYPE": "PAYLOAD",
    "RCS_SIZE": "MEDIUM",
    "COUNTRY_CODE": "CIS",
    "LAUNCH_DATE": "1983-01-19",
    "SITE": "PKMTR",
    "DECAY_DATE": null,
    "FILE": "5039972",
    "GP_ID": "313159151",
    "TLE_LINE0": "0 COSMOS 1432",
    "TLE_LINE1": "1 13764U 83002D   26050.64301313  .00000013  00000-0  18994-3 0  9996",
    "TLE_LINE2": "2 13764  74.0243 131.0749 0003697 262.6474 168.8474 12.49886474966163"
  },
  {
    "CCSDS_OMM_VERS": "3.0",
    "COMMENT": "GENERATED VIA SPACE-TRACK.ORG API",
    "CREATION_DATE": "2026-02-19T17:59:09",
    "ORIGINATOR": "18 SPCS",
    "OBJECT_NAME": "YUNYAO-1 43",
    "OBJECT_ID": "2025-059A",
    "CENTER_NAME": "EARTH",
    "REF_FRAME": "TEME",
    "TIME_SYSTEM": "UTC",
    "MEAN_ELEMENT_THEORY": "SGP4",
    "EPOCH": "2026-02-19T15:25:52.075776",
    "MEAN_MOTION": "15.10144979",
    "ECCENTRICITY": "0.00145478",
    "INCLINATION": "97.6058",
    "RA_OF_ASC_NODE": "232.7080",
    "ARG_OF_PERICENTER": "193.3283",
    "MEAN_ANOMALY": "166.7564",
    "EPHEMERIS_TYPE": "0",
    "CLASSIFICATION_TYPE": "U",
    "NORAD_CAT_ID": "63344",
    "ELEMENT_SET_NO": "999",
    "REV_AT_EPOCH": "5055",
    "BSTAR": "0.00027334955000",
    "MEAN_MOTION_DOT": "0.00004405",
    "MEAN_MOTION_DDOT": "0.0000000000000",
    "SEMIMAJOR_AXIS": "6913.894",
    "PERIOD": "95.355",
    "APOAPSIS": "545.818",
    "PERIAPSIS": "525.701",
    "OBJECT_TYPE": "PAYLOAD",
    "RCS_SIZE": "MEDIUM",
    "COUNTRY_CODE": "PRC",
    "LAUNCH_DATE": "2025-03-21",
    "SITE": "JSC",
    "DECAY_DATE": null,
    "FILE": "5039972",
    "GP_ID": "313183902",
    "TLE_LINE0": "0 YUNYAO-1 43",
    "TLE_LINE1": "1 63344U 25059A   26050.64296384  .00004405  00000-0  27335-3 0  9992",
    "TLE_LINE2": "2 63344  97.6058 232.7080 0014548 193.3283 166.7564 15.10144979 50551"
  },
  {
    "CCSDS_OMM_VERS": "3.0",
    "COMMENT": "GENERATED VIA SPACE-TRACK.ORG API",
    "CREATION_DATE": "2026-02-19T17:59:09",
    "ORIGINATOR": "18 SPCS",
    "OBJECT_NAME": "COSMOS 2386",
    "OBJECT_ID": "2001-058C",
    "CENTER_NAME": "EARTH",
    "REF_FRAME": "TEME",
    "TIME_SYSTEM": "UTC",
    "MEAN_ELEMENT_THEORY": "SGP4",
    "EPOCH": "2026-02-19T15:25:45.340896",
    "MEAN_MOTION": "12.61613811",
    "ECCENTRICITY": "0.00008987",
    "INCLINATION": "82.5428",
    "RA_OF_ASC_NODE": "289.4311",
    "ARG_OF_PERICENTER": "56.7939",
    "MEAN_ANOMALY": "303.3238",
    "EPHEMERIS_TYPE": "0",
    "CLASSIFICATION_TYPE": "U",
    "NORAD_CAT_ID": "27057",
    "ELEMENT_SET_NO": "999",
    "REV_AT_EPOCH": "11168",
    "BSTAR": "0.00016636639000",
    "MEAN_MOTION_DOT": "0.00000040",
    "MEAN_MOTION_DDOT": "0.0000000000000",
    "SEMIMAJOR_AXIS": "7794.427",
    "PERIOD": "114.140",
    "APOAPSIS": "1416.993",
    "PERIAPSIS": "1415.592",
    "OBJECT_TYPE": "PAYLOAD",
    "RCS_SIZE": "MEDIUM",
    "COUNTRY_CODE": "CIS",
    "LAUNCH_DATE": "2001-12-28",
    "SITE": "PKMTR",
    "DECAY_DATE": null,
    "FILE": "5039972",
    "GP_ID": "313162671",
    "TLE_LINE0": "0 COSMOS 2386",
    "TLE_LINE1": "1 27057U 01058C   26050.64288589  .00000040  00000-0  16637-3 0  9998",
    "TLE_LINE2": "2 27057  82.5428 289.4311 0000899  56.7939 303.3238 12.61613811111684"
  },
  {
    "CCSDS_OMM_VERS": "3.0",
    "COMMENT": "GENERATED VIA SPACE-TRACK.ORG API",
    "CREATION_DATE": "2026-02-19T17:59:09",
    "ORIGINATOR": "18 SPCS",
    "OBJECT_NAME": "COSMOS 1801",
    "OBJECT_ID": "1986-092H",
    "CENTER_NAME": "EARTH",
    "REF_FRAME": "TEME",
    "TIME_SYSTEM": "UTC",
    "MEAN_ELEMENT_THEORY": "SGP4",
    "EPOCH": "2026-02-19T15:25:41.155680",
    "MEAN_MOTION": "12.58851610",
    "ECCENTRICITY": "0.00546984",
    "INCLINATION": "74.0144",
    "RA_OF_ASC_NODE": "155.6599",
    "ARG_OF_PERICENTER": "184.6663",
    "MEAN_ANOMALY": "240.7020",
    "EPHEMERIS_TYPE": "0",
    "CLASSIFICATION_TYPE": "U",
    "NORAD_CAT_ID": "17145",
    "ELEMENT_SET_NO": "999",
    "REV_AT_EPOCH": "80364",
    "BSTAR": "0.00010270523000",
    "MEAN_MOTION_DOT": "0.00000001",
    "MEAN_MOTION_DDOT": "0.0000000000000",
    "SEMIMAJOR_AXIS": "7805.825",
    "PERIOD": "114.390",
    "APOAPSIS": "1470.387",
    "PERIAPSIS": "1384.993",
    "OBJECT_TYPE": "PAYLOAD",
    "RCS_SIZE": "MEDIUM",
    "COUNTRY_CODE": "CIS",
    "LAUNCH_DATE": "1986-11-21",
    "SITE": "PKMTR",
    "DECAY_DATE": null,
    "FILE": "5039972",
    "GP_ID": "313159542",
    "TLE_LINE0": "0 COSMOS 1801",
    "TLE_LINE1": "1 17145U 86092H   26050.64283745  .00000001  00000-0  10271-3 0  9990",
    "TLE_LINE2": "2 17145  74.0144 155.6599 0054698 184.6663 240.7020 12.58851610803649"
  }
]